     2              NAVIGATION DATA                         RINEX VERSION / TYPE
CCRINEXN V1.6.0 UX  CDDIS               13-FEB-22 23:31     PGM / RUN BY / DATE 
IGS BROADCAST EPHEMERIS FILE                                COMMENT             
    0.1583D-07 -0.7451D-08 -0.5960D-07  0.5960D-07          ION ALPHA           
    0.1229D+06 -0.6554D+05 -0.1311D+06 -0.6554D+05          ION BETA            
   -0.279396772385D-08-0.444089209850D-14   319488     2197 DELTA-UTC: A0,A1,T,W
    18                                                      LEAP SECONDS        
                                                            END OF HEADER       
11 22  2 13 16  0  0.0-0.901971943677D-04 0.125055521494D-10 0.000000000000D+00
    0.270000000000D+02-0.126875000000D+02 0.458233372974D-08-0.113191589545D+01
   -0.542029738426D-06 0.267717987299D-03 0.780448317528D-06 0.515377081490D+04
    0.576000000000D+05-0.819563865662D-07-0.186594408840D+01-0.391155481338D-07
    0.961748266756D+00 0.366968750000D+03 0.287359064186D+01-0.838106339065D-08
    0.267868300647D-10 0.100000000000D+01 0.219700000000D+04 0.000000000000D+00
    0.160000000000D+02 0.630000000000D+02-0.884756445885D-08 0.270000000000D+02
    0.504180000000D+05 0.400000000000D+01 0.000000000000D+00 0.000000000000D+00
12 22  2 13 16  0  0.0-0.170458108187D-03-0.568434188608D-11 0.000000000000D+00
    0.330000000000D+02 0.235625000000D+02 0.417017370447D-08 0.171185680550D+01
    0.933185219765D-06 0.868429022375D-02 0.101160258055D-04 0.515360429001D+04
    0.576000000000D+05-0.128522515297D-06 0.233860422569D+01-0.216066837311D-06
    0.970307361562D+00 0.188375000000D+03 0.124651434098D+01-0.768889170177D-08
   -0.613239829615D-09 0.100000000000D+01 0.219700000000D+04 0.000000000000D+00
    0.200000000000D+01 0.000000000000D+00-0.125728547573D-07 0.330000000000D+02
    0.504180000000D+05 0.400000000000D+01 0.000000000000D+00 0.000000000000D+00
13 22  2 13 16  0  0.0 0.261105131358D-03 0.613908923697D-11 0.000000000000D+00
    0.750000000000D+02-0.578125000000D+01 0.435518141079D-08-0.155420130302D+01
   -0.275671482086D-06 0.580462778453D-02 0.943429768086D-05 0.515367301178D+04
    0.576000000000D+05 0.139698386192D-06 0.306531384034D+00 0.242143869400D-07
    0.968911750881D+00 0.200093750000D+03 0.958761830679D+00-0.769389191005D-08
    0.581095633537D-09 0.100000000000D+01 0.219700000000D+04 0.000000000000D+00
    0.200000000000D+01 0.000000000000D+00-0.111758708954D-07 0.750000000000D+02
    0.504180000000D+05 0.400000000000D+01 0.000000000000D+00 0.000000000000D+00
14 22  2 13 16  0  0.0-0.834101811051D-04-0.454747350886D-11 0.000000000000D+00
    0.110000000000D+03 0.193125000000D+02 0.468448084172D-08 0.177910528877D+01
    0.110082328320D-05 0.143441907130D-02 0.895187258720D-05 0.515364925957D+04
    0.576000000000D+05 0.931322574615D-07 0.230734411087D+01 0.223517417908D-07
    0.953691619941D+00 0.203625000000D+03 0.301632061439D+01-0.799033282943D-08
   -0.578952687132D-09 0.100000000000D+01 0.219700000000D+04 0.000000000000D+00
    0.200000000000D+01 0.000000000000D+00-0.745058059692D-08 0.110000000000D+03
    0.504180000000D+05 0.400000000000D+01 0.000000000000D+00 0.000000000000D+00
15 22  2 13 16  0  0.0-0.841165892780D-04 0.284217094304D-11 0.000000000000D+00
    0.380000000000D+02-0.303437500000D+02 0.499092217766D-08-0.197895375809D+01
   -0.166520476341D-05 0.139341711765D-01 0.988878309727D-05 0.515374127388D+04
    0.576000000000D+05 0.219792127609D-06 0.478249644446D-01-0.167638063431D-07
    0.930393909292D+00 0.164437500000D+03 0.107477762293D+01-0.790211486909D-08
    0.618954353362D-09 0.100000000000D+01 0.219700000000D+04 0.000000000000D+00
    0.200000000000D+01 0.000000000000D+00-0.107102096081D-07 0.380000000000D+02
    0.504180000000D+05 0.400000000000D+01 0.000000000000D+00 0.000000000000D+00
16 22  2 13 16  0  0.0-0.468943733722D-03-0.488853402203D-11 0.000000000000D+00
    0.820000000000D+02 0.179375000000D+02 0.431589406003D-08-0.142448036024D+00
    0.105984508991D-05 0.127555077197D-01 0.927597284317D-05 0.515360201073D+04
    0.576000000000D+05 0.484287738800D-07 0.235722270363D+01 0.175088644028D-06
    0.970269195492D+00 0.203812500000D+03 0.707868107537D+00-0.797426073140D-08
   -0.559309011751D-09 0.100000000000D+01 0.219700000000D+04 0.000000000000D+00
    0.200000000000D+01 0.000000000000D+00-0.102445483208D-07 0.820000000000D+02
    0.504180000000D+05 0.400000000000D+01 0.000000000000D+00 0.000000000000D+00
17 22  2 13 16  0  0.0 0.574606005102D-03 0.500222085975D-11 0.000000000000D+00
    0.580000000000D+02 0.115125000000D+03 0.395587906396D-08-0.107396557173D+01
    0.611878931522D-05 0.136203160509D-01 0.728666782379D-05 0.515376225853D+04
    0.576000000000D+05-0.150874257088D-06-0.290760919990D+01 0.182539224625D-06
    0.980185652987D+00 0.255562500000D+03-0.149887374565D+01-0.801104797802D-08
    0.107504477993D-09 0.100000000000D+01 0.219700000000D+04 0.000000000000D+00
    0.200000000000D+01 0.000000000000D+00-0.111758708954D-07 0.580000000000D+02
    0.504180000000D+05 0.400000000000D+01 0.000000000000D+00 0.000000000000D+00
18 22  2 13 16  0  0.0 0.240975525230D-03-0.807176547823D-11 0.000000000000D+00
    0.188000000000D+03 0.334375000000D+01 0.444054210926D-08-0.304996845874D+01
    0.208616256714D-06 0.209347833879D-02 0.819563865662D-06 0.515362001419D+04
    0.576000000000D+05-0.167638063431D-07-0.190192756047D+01 0.465661287308D-07
    0.970437115081D+00 0.369343750000D+03 0.310837514122D+01-0.829605984991D-08
    0.653598653579D-10 0.100000000000D+01 0.219700000000D+04 0.000000000000D+00
    0.200000000000D+01 0.000000000000D+00-0.838190317154D-08 0.444000000000D+03
    0.565680000000D+05 0.400000000000D+01 0.000000000000D+00 0.000000000000D+00
19 22  2 13 16  0  0.0 0.118439085782D-03 0.500222085975D-11 0.000000000000D+00
    0.780000000000D+02 0.111187500000D+03 0.395659337942D-08 0.133685791050D+01
    0.551715493202D-05 0.896975118667D-02 0.647641718388D-05 0.515368847847D+04
    0.576000000000D+05 0.197440385819D-06-0.286274836935D+01-0.184401869774D-06
    0.978923918328D+00 0.263375000000D+03 0.200768476550D+01-0.786782772661D-08
    0.700029159024D-10 0.100000000000D+01 0.219700000000D+04 0.000000000000D+00
    0.200000000000D+01 0.000000000000D+00-0.158324837685D-07 0.780000000000D+02
    0.504260000000D+05 0.400000000000D+01 0.000000000000D+00 0.000000000000D+00
20 22  2 13 16  0  0.0 0.516721513122D-03-0.227373675443D-12 0.000000000000D+00
    0.770000000000D+02-0.136406250000D+03 0.475984112363D-08-0.222996792913D+01
   -0.699050724506D-05 0.516536599025D-02 0.580772757530D-05 0.515375396156D+04
    0.576000000000D+05-0.596046447754D-07-0.102862141938D+01-0.894069671631D-07
    0.941691513597D+00 0.256468750000D+03 0.313098588748D+01-0.827034449305D-08
   -0.603596570791D-10 0.100000000000D+01 0.219700000000D+04 0.000000000000D+00
    0.280000000000D+01 0.000000000000D+00-0.838190317154D-08 0.770000000000D+02
    0.504180000000D+05 0.400000000000D+01 0.000000000000D+00 0.000000000000D+00
21 22  2 13 16  0  0.0 0.157970469445D-03 0.682121026330D-12 0.000000000000D+00
    0.580000000000D+02 0.108437500000D+02 0.469090968093D-08-0.888530327243D+00
    0.590458512306D-06 0.245985627407D-01 0.222213566303D-05 0.515357958221D+04
    0.576000000000D+05-0.353902578354D-06-0.200065443179D+01-0.353902578354D-07
    0.959246675377D+00 0.343187500000D+03-0.100651293824D+01-0.869607651221D-08
    0.356800576462D-09 0.100000000000D+01 0.219700000000D+04 0.000000000000D+00
    0.200000000000D+01 0.000000000000D+00-0.102445483208D-07 0.580000000000D+02
    0.504690000000D+05 0.400000000000D+01 0.000000000000D+00 0.000000000000D+00
22 22  2 13 16  0  0.0 0.213025603443D-03 0.568434188608D-11 0.000000000000D+00
    0.117000000000D+03-0.493750000000D+01 0.452697428093D-08-0.119900130870D+01
    0.186264514923D-07 0.128830679460D-01 0.945851206779D-05 0.515365645981D+04
    0.576000000000D+05 0.204890966415D-07 0.254993385749D+00 0.303611159325D-06
    0.961637999305D+00 0.198625000000D+03-0.187283352409D+01-0.788890003292D-08
    0.508235455761D-09 0.100000000000D+01 0.219700000000D+04 0.000000000000D+00
    0.200000000000D+01 0.000000000000D+00-0.977888703346D-08 0.117000000000D+03
    0.504180000000D+05 0.400000000000D+01 0.000000000000D+00 0.000000000000D+00
23 22  2 13 16  0  0.0 0.169361010194D-05-0.352429196937D-11 0.000000000000D+00
    0.223000000000D+03-0.122812500000D+03 0.420338937375D-08 0.232429976151D+01
   -0.636652112007D-05 0.197285856120D-02 0.663660466671D-05 0.515370718765D+04
    0.576000000000D+05-0.167638063431D-07-0.901872688720D+00 0.316649675369D-07
    0.967449287769D+00 0.252125000000D+03 0.295896740994D+01-0.792997317236D-08
   -0.703600736366D-10 0.100000000000D+01 0.219700000000D+04 0.000000000000D+00
    0.200000000000D+01 0.000000000000D+00-0.838190317154D-08 0.735000000000D+03
    0.504180000000D+05 0.400000000000D+01 0.000000000000D+00 0.000000000000D+00
24 22  2 13 16  0  0.0 0.274699646980D-03-0.181898940355D-11 0.000000000000D+00
    0.850000000000D+02 0.140625000000D+02 0.553665919551D-08-0.295166533189D+01
    0.579282641411D-06 0.123320010025D-01 0.523403286934D-05 0.515368700981D+04
    0.576000000000D+05 0.242143869400D-07 0.114283668716D+01-0.257045030594D-06
    0.934143448790D+00 0.262906250000D+03 0.807126768595D+00-0.825248660634D-08
    0.123933733766D-09 0.100000000000D+01 0.219700000000D+04 0.000000000000D+00
    0.200000000000D+01 0.000000000000D+00 0.232830643654D-08 0.850000000000D+02
    0.504180000000D+05 0.400000000000D+01 0.000000000000D+00 0.000000000000D+00
